NORAD_CAT_ID,OBJECT_NAME,OBJECT_TYPE,EPOCH,MEAN_MOTION,ECCENTRICITY,INCLINATION,RA_OF_ASC_NODE,ARG_OF_PERICENTER,MEAN_ANOMALY,BSTAR,MEAN_MOTION_DOT,MEAN_MOTION_DDOT,TLE_LINE0,TLE_LINE1,TLE_LINE2,SEMIMAJOR_AXIS,PERIOD,APOGEE,PERIGEE,DECAYED
52643.0,STARLINK-3963,PAYLOAD,2022-12-05 01:13:45,15.08883117,0.0002732,53.2188,204.1092,37.06800000000001,323.0501,-0.00070719,-0.0001154,0.0,0 STARLINK-3963,1 52643U 22052AX  22339.05122079 -.00011540  00000-0 -70719-3 0  9996,2 52643  53.2188 204.1092 0002732  37.0680 323.0501 15.08883117 31768,6917.749,95.435,541.504,537.724,0.0
52643.0,STARLINK-3963,PAYLOAD,2022-12-05 07:35:18,15.0884168,0.0003031,53.2188,202.9205,40.4901,319.6316,-2.6245e-06,-3.3e-06,0.0,0 STARLINK-3963,1 52643U 22052AX  22339.31618870 -.00000330  00000-0 -26245-5 0  9996,2 52643  53.2188 202.9205 0003031  40.4901 319.6316 15.08841680 31806,6917.875,95.437,541.837,537.643,0.0
52643.0,STARLINK-3963,PAYLOAD,2022-12-05 18:43:00,15.08839775,0.0003055,53.2187,200.8387,38.9653,321.1559,0.00013836,1.914e-05,0.0,0 STARLINK-3963,1 52643U 22052AX  22339.77986590  .00001914  00000-0  13836-3 0  9990,2 52643  53.2187 200.8387 0003055  38.9653 321.1559 15.08839775 31499,6917.880999999999,95.438,541.859,537.633,0.0
52643.0,STARLINK-3963,PAYLOAD,2022-12-06 07:26:05,15.08845226,0.0003108,53.2187,198.4594,38.8267,321.2948,0.00010215,1.338e-05,0.0,0 STARLINK-3963,1 52643U 22052AX  22340.30978373  .00001338  00000-0  10215-3 0  9999,2 52643  53.2187 198.4594 0003108  38.8267 321.2948 15.08845226 31570,6917.864000000001,95.437,541.879,537.5790000000002,0.0
52643.0,STARLINK-3963,PAYLOAD,2022-12-06 15:23:01,15.08834306,0.0002998,53.2188,196.9732,49.6866,310.4388,9.2088e-05,1.177e-05,0.0,0 STARLINK-3963,1 52643U 22052AX  22340.64099211  .00001177  00000-0  92088-4 0  9991,2 52643  53.2188 196.9732 0002998  49.6866 310.4388 15.08834306 32003,6917.898,95.438,541.837,537.689,0.0
52643.0,STARLINK-3963,PAYLOAD,2022-12-07 00:55:21,15.08823493,0.0002976,53.2189,195.1885,38.9305,321.1901,-1.765e-05,-5.69e-06,0.0,0 STARLINK-3963,1 52643U 22052AX  22341.03844362 -.00000569  00000-0 -17650-4 0  9998,2 52643  53.2189 195.1885 0002976  38.9305 321.1901 15.08823493 32060,6917.931,95.439,541.855,537.737,0.0
52643.0,STARLINK-3963,PAYLOAD,2022-12-07 07:16:54,15.088262599999998,0.000302,53.2187,193.9997,39.3978,320.7233,-1.0287e-05,-4.52e-06,0.0,0 STARLINK-3963,1 52643U 22052AX  22341.30340510 -.00000452  00000-0 -10287-4 0  9994,2 52643  53.2187 193.9997 0003020  39.3978 320.7233 15.08826260 31720,6917.922,95.438,541.877,537.698,0.0
52643.0,STARLINK-3963,PAYLOAD,2022-12-07 18:24:36,15.0883217,0.000305,53.2184,191.9175,39.7443,320.3773,-1.4578e-05,-5.21e-06,0.0,0 STARLINK-3963,1 52643U 22052AX  22341.76708508 -.00000521  00000-0 -14578-4 0  9993,2 52643  53.2184 191.9175 0003050  39.7443 320.3773 15.08832170 32179,6917.904,95.438,541.879,537.659,0.0
52643.0,STARLINK-3963,PAYLOAD,2022-12-08 07:07:40,15.08841739,0.0003065,53.2188,189.5391,41.7932,318.3294,2.993e-05,1.88e-06,0.0,0 STARLINK-3963,1 52643U 22052AX  22342.29699980  .00000188  00000-0  29930-4 0  9990,2 52643  53.2188 189.5391 0003065  41.7932 318.3294 15.08841739 31870,6917.875,95.437,541.86,537.62,0.0
52643.0,STARLINK-3963,PAYLOAD,2022-12-09 13:20:00,15.08841343,0.0002858,53.2172,183.889,46.6283,313.4947,0.00020174,2.924e-05,0.0,0 STARLINK-3963,1 52643U 22052AX  22343.55556307  .00002924  00000-0  20174-3 0  9995,2 52643  53.2172 183.8890 0002858  46.6283 313.4947 15.08841343 32060,6917.876,95.437,541.7180000000002,537.764,0.0
52643.0,STARLINK-3963,PAYLOAD,2022-12-09 19:41:33,15.08835855,0.0003049,53.2174,182.7004,44.2511,315.8724,7.9828e-05,9.82e-06,0.0,0 STARLINK-3963,1 52643U 22052AX  22343.82052681  .00000982  00000-0  79828-4 0  9994,2 52643  53.2174 182.7004 0003049  44.2511 315.8724 15.08835855 32484,6917.893,95.438,541.867,537.649,0.0
52643.0,STARLINK-3963,PAYLOAD,2022-12-10 00:27:42,15.08837764,0.0003099,53.2175,181.8089,44.1452,315.9787,7.8602e-05,9.62e-06,0.0,0 STARLINK-3963,1 52643U 22052AX  22344.01924686  .00000962  00000-0  78602-4 0  9996,2 52643  53.2175 181.8089 0003099  44.1452 315.9787 15.08837764 32139,6917.887,95.438,541.896,537.6080000000002,0.0
52643.0,STARLINK-3963,PAYLOAD,2022-12-10 19:32:20,15.08844264,0.0003188,53.2174,178.2411,44.5118,315.613,8.4806e-05,1.061e-05,0.0,0 STARLINK-3963,1 52643U 22052AX  22344.81412411  .00001061  00000-0  84806-4 0  9996,2 52643  53.2174 178.2411 0003188  44.5118 315.6130 15.08844264 32254,6917.8669999999975,95.437,541.938,537.5269999999998,0.0
52643.0,STARLINK-3963,PAYLOAD,2022-12-11 00:18:29,15.08846005,0.0003168999999999,53.2174,177.34900000000005,45.1337,314.9913,0.0001107999999999,1.476e-05,0.0,0 STARLINK-3963,1 52643U 22052AX  22345.01284319  .00001476  00000-0  11080-3 0  9996,2 52643  53.2174 177.3490 0003169  45.1337 314.9913 15.08846005 32661,6917.861999999999,95.437,541.919,537.535,0.0
52643.0,STARLINK-3963,PAYLOAD,2022-12-11 19:23:06,15.08850352,0.0003163,53.2175,173.7798,47.0115,313.1142,0.00027266,4.055e-05,0.0,0 STARLINK-3963,1 52643U 22052AX  22345.80771892  .00004055  00000-0  27266-3 0  9999,2 52643  53.2175 173.7798 0003163  47.0115 313.1142 15.08850352 32409,6917.849,95.437,541.9019999999998,537.526,0.0
52643.0,STARLINK-3963,PAYLOAD,2022-12-12 12:52:21,15.08837698,0.0003109,53.2174,170.5082,51.3283,308.7987,-9.0653e-06,-4.33e-06,0.0,0 STARLINK-3963,1 52643U 22052AX  22346.53636282 -.00000433  00000-0 -90653-5 0  9993,2 52643  53.2174 170.5082 0003109  51.3283 308.7987 15.08837698 32510,6917.887,95.438,541.903,537.602,0.0
52643.0,STARLINK-3963,PAYLOAD,2022-12-13 11:07:45,15.08845504,0.0003165,53.2185,166.3457,51.4574,308.6702,5.5044e-05,5.88e-06,0.0,0 STARLINK-3963,1 52643U 22052AX  22347.46371777  .00000588  00000-0  55044-4 0  9994,2 52643  53.2185 166.3457 0003165  51.4574 308.6702 15.08845504 32651,6917.864000000001,95.437,541.918,537.539,0.0
52643.0,STARLINK-3963,PAYLOAD,2022-12-13 19:04:41,15.08841278,0.0003167,53.2187,164.8596,52.6835,307.4446,-1.2884e-05,-4.94e-06,0.0,0 STARLINK-3963,1 52643U 22052AX  22347.79492248 -.00000494  00000-0 -12884-4 0  9990,2 52643  53.2187 164.8596 0003167  52.6835 307.4446 15.08841278 32707,6917.876,95.437,541.932,537.5509999999998,0.0
52643.0,STARLINK-3963,PAYLOAD,2022-12-13 22:15:27,15.08841896,0.0002999,53.2177,164.2641,45.1958,314.9278,-0.00018035,-3.158e-05,0.0,0 STARLINK-3963,1 52643U 22052AX  22347.92740535 -.00003158  00000-0 -18035-3 0  9993,2 52643  53.2177 164.2641 0002999  45.1958 314.9278 15.08841896 33103,6917.875,95.437,541.814,537.665,0.0
52643.0,STARLINK-3963,PAYLOAD,2022-12-14 12:33:56,15.08829928,0.0003083,53.2169,161.5874,47.6796,312.4457,-1.4413e-06,-3.12e-06,0.0,0 STARLINK-3963,1 52643U 22052AX  22348.52357213 -.00000312  00000-0 -14413-5 0  9994,2 52643  53.2169 161.5874 0003083  47.6796 312.4457 15.08829928 32815,6917.911,95.438,541.909,537.643,0.0
52643.0,STARLINK-3963,PAYLOAD,2022-12-14 18:55:29,15.08833329,0.0003038,53.2188,160.3985,49.6622,310.4635,2.8488e-05,1.65e-06,0.0,0 STARLINK-3963,1 52643U 22052AX  22348.78853050  .00000165  00000-0  28488-4 0  9992,2 52643  53.2188 160.3985 0003038  49.6622 310.4635 15.08833329 32856,6917.901,95.438,541.867,537.664,0.0
52643.0,STARLINK-3963,PAYLOAD,2022-12-15 10:49:20,15.08838605,0.0003078999999999,53.218,157.4248,50.4972,309.6292,4.0786e-05,3.6000000000000007e-06,0.0,0 STARLINK-3963,1 52643U 22052AX  22349.45092889  .00000360  00000-0  40786-4 0  9994,2 52643  53.2180 157.4248 0003079  50.4972 309.6292 15.08838605 33335,6917.885,95.438,541.88,537.62,0.0
52643.0,STARLINK-3963,PAYLOAD,2022-12-15 12:24:43,15.08837706,0.0003093,53.2185,157.1276,50.0906,310.0357,7.1713e-05,8.53e-06,0.0,0 STARLINK-3963,1 52643U 22052AX  22349.51716898  .00000853  00000-0  71713-4 0  9995,2 52643  53.2185 157.1276 0003093  50.0906 310.0357 15.08837706 32964,6917.887,95.438,541.8919999999998,537.613,0.0
52643.0,STARLINK-3963,PAYLOAD,2022-12-15 20:21:38,15.08839431,0.0003129,53.2186,155.6412,51.2713,308.8558,0.00013789,1.907e-05,0.0,0 STARLINK-3963,1 52643U 22052AX  22349.84836695  .00001907  00000-0  13789-3 0  9998,2 52643  53.2186 155.6412 0003129  51.2713 308.8558 15.08839431 33011,6917.882,95.438,541.9119999999998,537.5830000000002,0.0
52643.0,STARLINK-3963,PAYLOAD,2022-12-16 10:40:06,15.08845825,0.000313,53.219,152.9649,52.6826,307.4451,0.00020111,2.914e-05,0.0,0 STARLINK-3963,1 52643U 22052AX  22350.44452236  .00002914  00000-0  20111-3 0  9997,2 52643  53.2190 152.9649 0003130  52.6826 307.4451 15.08845825 33482,6917.863,95.437,541.893,537.562,0.0
52643.0,STARLINK-3963,PAYLOAD,2022-12-16 20:12:25,15.08842316,0.0002956,53.2186,151.18200000000004,45.3746,314.7487,0.00010009,1.305e-05,0.0,0 STARLINK-3963,1 52643U 22052AX  22350.84196563  .00001305  00000-0  10009-3 0  9997,2 52643  53.2186 151.1820 0002956  45.3746 314.7487 15.08842316 33161,6917.873000000001,95.437,541.783,537.693,0.0
52643.0,STARLINK-3963,PAYLOAD,2022-12-17 04:09:21,15.08838169,0.0002972,53.2187,149.6949,51.2781,308.8477,0.00012668,1.728e-05,0.0,0 STARLINK-3963,1 52643U 22052AX  22351.17316749  .00001728  00000-0  12668-3 0  9996,2 52643  53.2187 149.6949 0002972  51.2781 308.8477 15.08838169 33219,6917.886,95.438,541.807,537.695,0.0
52643.0,STARLINK-3963,PAYLOAD,2022-12-17 16:52:27,15.08838078,0.000315,53.2197,147.3165,53.9275,306.2009,-2.4751e-05,-6.83e-06,0.0,0 STARLINK-3963,1 52643U 22052AX  22351.70309103 -.00000683  00000-0 -24751-4 0  9999,2 52643  53.2197 147.3165 0003150  53.9275 306.2009 15.08838078 33673,6917.886,95.438,541.93,537.572,0.0
52643.0,STARLINK-3963,PAYLOAD,2022-12-18 10:21:41,15.08841639,0.0003043,53.2199,144.0446,54.0896,306.0378,-1.0347e-05,-4.53e-06,0.0,0 STARLINK-3963,1 52643U 22052AX  22352.43172831 -.00000453  00000-0 -10347-4 0  9997,2 52643  53.2199 144.0446 0003043  54.0896 306.0378 15.08841639 33408,6917.875,95.437,541.845,537.635,0.0
